#cP2015  5  1  0  0  0.00000000      96 ORBIT IGb08 HLM  IGS
## 1842 432000.00000000   900.00000000 57143 0.0000000000000
+   32   G01G02G03G04G05G06G07G08G09G10G11G12G13G14G15G16G17
+        G18G19G20G21G22G23G24G25G26G27G28G29G30G31G32  0  0
+          0  0  0  0  0  0  0  0  0  0  0  0  0  0  0  0  0
+          0  0  0  0  0  0  0  0  0  0  0  0  0  0  0  0  0
+          0  0  0  0  0  0  0  0  0  0  0  0  0  0  0  0  0
++         2  2  2  2  2  2  2  0  2  2  2  2  2  2  3  2  2
++         0  2  2  2  2  2  2  2  2  2  2  2  2  2  2  0  0
++         0  0  0  0  0  0  0  0  0  0  0  0  0  0  0  0  0
++         0  0  0  0  0  0  0  0  0  0  0  0  0  0  0  0  0
++         0  0  0  0  0  0  0  0  0  0  0  0  0  0  0  0  0
%c G  cc GPS ccc cccc cccc cccc cccc ccccc ccccc ccccc ccccc
%c cc cc ccc ccc cccc cccc cccc cccc ccccc ccccc ccccc ccccc
%f  1.2500000  1.025000000  0.00000000000  0.000000000000000
%f  0.0000000  0.000000000  0.00000000000  0.000000000000000
%i    0    0    0    0      0      0      0      0         0
%i    0    0    0    0      0      0      0      0         0
/* FINAL ORBIT COMBINATION FROM WEIGHTED AVERAGE OF:        
/* cod emr esa gfz grg jpl mit ngs sio                      
/* REFERENCED TO IGS TIME (IGST) AND TO WEIGHTED MEAN POLE: 
/* PCV:IGS08_1842 OL/AL:FES2004  NONE     Y  ORB:CMB CLK:CMB
*  2015  5  1 16 30  0.00000000
PG01 -22419.833890 -13792.578098  -4284.906355     -6.129285  7  4  5  76       
PG02   5016.167565  17712.108426  19664.703411    563.159113  4  8  6  94       
PG03 -13366.876427 -15452.809750  16962.091665    314.503033  5  3  6 128       
PG04 -15988.722469 -17316.325862 -12823.797867    -13.163679  4  6  4 103       
PG05   3369.514621  26222.768926  -1056.062424   -246.945836  5  8  6  92       
PG06 -11708.453515  10908.828524  21198.998104    149.848674  5  7  5 116       
PG07 -24616.978563  -5263.363931  -8936.920579    459.179648  5  3  4 104       
PG08   8451.587890 -20079.123660  14837.273826 999999.999999
PG09 -22215.382075   3697.159174  14084.999521   -148.180291  7  6  4 115       
PG10 -10200.541508  17993.742706  16035.836889   -173.160094  4  7  5 103       
PG11 -20096.940387 -12262.248206 -12949.105294   -575.253916  6  5  4 119       
PG12  10881.848075  18889.390679  15234.097972    289.338295  1  6  4 106       
PG13  -3613.297798  17432.949774 -19895.934763   -110.627523  4  7  6  97       
PG14  21147.550809 -15571.480603   3600.607187     66.728410  5  9  6  94       
PG15   9960.779575  12317.971574 -21408.851382   -246.759620  6  8  5 121       
PG16  -1232.898955 -26312.295291   -781.025434   -133.397049  5  6  5 111       
PG17 -21196.676486  15662.720900   2492.867904   -169.047924  6  8  4 131       
PG18  15104.471483  -5182.753163 -20702.623363 999999.999999
PG19  -5712.498791 -14087.277315 -21938.670687   -509.116126  6  6  4 118       
PG20   2110.871498  26262.405106   2938.386192    315.696590  5 10  5  92       
PG21  24203.857686   2247.039917 -10416.781586   -441.953723  5  6  5 121       
PG22  10713.525820 -17427.136940 -16616.602158    345.707774  4  7  4 119       
PG23 -16927.772294  -5599.899685  19956.063881   -105.545167  4  4  4 108       
PG24  20992.968181  14789.896860  -7111.889912    -47.582969  5  7  3 112       
PG25  14860.860040   5655.595037  21210.155311    -24.963791  7  6  5  89       
PG26   4514.288511 -24301.653142   9703.879418     25.702841  7  6  5  98       
PG27   5279.149077 -18894.151773 -17865.672023     68.870116  5  7  6 124       
PG28 -12278.757597  12842.575482 -19095.288100    436.819465  7  8  7 127       
PG29  21199.927125   -496.085437  15988.637069    607.762845  6  8  5  97       
PG30 -19764.484872   3176.217969 -17499.888780    -65.148403  4  7  5 106       
PG31   8813.073224 -12263.995909  21997.645740    317.087456  4  8  4 110       
PG32  -4673.000015 -25713.647630   6133.272186   -162.193334  8  8  3 124       
*  2015  5  1 16 45  0.00000000
PG01 -21742.367055 -13752.227611  -7033.780752     -6.128889  7  4  5  86       
PG02   2902.716487  16991.289808  20677.809827    563.161198  4  8  5  92       
PG03 -13419.860074 -17290.729881  15031.753045    314.513544  5  3  6 113       
PG04 -14481.694427 -16942.816968 -14963.131524    -13.164663  4  6  4 107       
PG05   3056.081117  26216.743314   1782.188607   -246.941639  4  8  5  97       
PG06 -13872.724910   9922.147854  20360.668087    149.857112  4  7  5 104       
PG07 -25334.195551  -5794.597276  -6261.326838    459.182029  5  2  3  75       
PG08   8795.957668 -18256.507861  16852.042852 999999.999999
PG09 -20955.788790   2496.161897  16128.242433   -148.186790  7  6  4 108       
PG10 -10653.486028  16012.457500  17750.371780   -173.161988  4  7  6 107       
PG11 -18547.504991 -12486.048131 -14961.133015   -575.256467  6  5  4 124       
PG12  10888.282467  20511.495498  13000.364344    289.341032  2  8  4  94       
PG13  -5518.165799  18457.711400 -18484.304853   -110.630592  3  7  6 102       
PG14  21469.099877 -15484.730553    737.374663     66.725982  4  9  6 100       
PG15   8073.897674  13853.170936 -21235.354305   -246.761553  5  8  6 116       
PG16  -1028.873702 -26237.134120   2154.306810   -133.393650  5  6  6 113       
PG17 -21404.931824  15517.308925   -394.670850   -169.049663  6  8  5 131       
PG18  15501.811091  -2715.222237 -20901.745379 999999.999999
PG19  -3604.598232 -15333.937899 -21501.820199   -509.117191  6  6  4 121       
PG20   1665.038057  25826.190823   5670.280890    315.699946  5 10  4  79       
PG21  25145.597108   2938.451902  -7911.529493   -441.956266  5  6  4 116       
PG22  11220.893302 -15429.629398 -18178.400699    345.711484  4  6  4 130       
PG23 -15132.166370  -7042.646003  20886.699214   -105.547862  4  5  4  84       
PG24  20015.328197  14658.702344  -9721.509399    -47.583508  5  7  3 117       
PG25  15097.819133   8029.398075  20274.959108    -24.967088  6  6  4  78       
PG26   4893.787518 -23086.969071  12170.725690     25.706856  6  6  4 109       
PG27   6915.938325 -19949.207484 -16057.926787     68.872598  5  7  6 115       
PG28 -12499.334578  10475.351119 -20326.735748    436.821767  7  8  7 120       
PG29  19682.487147    703.430533  17823.213730    607.765118  5  8  5 101       
PG30 -21373.815795   2161.705060 -15671.394538    -65.144312  3  7  5 102       
PG31  11038.289310 -11220.750408  21573.300874    317.086600  4  8  4  99       
PG32  -4451.203190 -26263.752923   3404.980003   -162.184851  7  8  3 110       
*  2015  5  1 17  0  0.00000000
PG01 -20778.685556 -13644.849910  -9663.090125     -6.128498  7  5  5 104       
PG02    664.115207  16348.442995  21349.153729    563.163540  4  8  5 111       
PG03 -13525.333918 -18894.426320  12842.495783    314.524072  5  4  6 117       
PG04 -12746.400587 -16572.552726 -16853.063630    -13.165799  4  6  4 108       
PG05   2682.040589  25911.470785   4589.391652   -246.937523  4  8  5 121       
PG06 -15977.366964   9087.786698  19171.999021    149.865664  4  6  5 128       
PG07 -25792.134258  -6175.591049  -3480.010561    459.184335  5  2  3  83       
PG08   9275.096728 -16244.670890  18570.052927 999999.999999
PG09 -19596.619897   1090.786438  17893.964349   -148.193281  6  5  3 122       
PG10 -11230.846507  13879.459863  19145.700909   -173.163214  3  7  6 114       
PG11 -16803.843844 -12772.965914 -16725.385354   -575.258800  6  5  4 118       
PG12  10950.694378  21866.020500  10544.222015    289.343741  2  8  4 116       
PG13  -7218.250194  19485.707949 -16759.498576   -110.633705  2  7  7 101       
PG14  21532.755518 -15220.686388  -2138.638372     66.723282  3  8  6 104       
PG15   6289.409911  15451.897314 -20698.467605   -246.763575  5  8  6 112       
PG16   -780.158463 -25841.348333   5051.643617   -133.390291  5  6  5 113       
PG17 -21363.199644  15178.576301  -3275.294760   -169.051200  5  8  5 102       
PG18  16009.389214   -269.891709 -20724.683675 999999.999999
PG19  -1619.500889 -16654.168679 -20698.894674   -509.118551  6  6  3 123       
PG20   1122.234616  25117.665865   8303.832537    315.703228  5 10  4 113       
PG21  25841.745393   3484.073107  -5269.488180   -441.959970  4  6  4 110       
PG22  11849.785292 -13301.013420 -19419.937464    345.715353  4  5  4 133       
PG23 -13345.380621  -8632.165498  21464.969461   -105.550026  5  5  3 113       
PG24  18762.292973  14487.006071 -12165.415954    -47.583955  5  7  4 118       
PG25  15441.200803  10260.710914  18989.430272    -24.970385  6  6  3  80       
PG26   5385.491115 -21630.748931  14427.951604     25.710773  5  6  5 109       
PG27   8328.041910 -20945.440771 -13972.796088     68.875057  5  6  5 128       
PG28 -12863.968551   8000.649306 -21187.963221    436.824027  7  8  6 101       
PG29  18081.235605   2098.830795  19351.162896    607.767093  3  7  5  93       
PG30 -22830.059625   1320.855990 -13574.154969    -65.140234  3  7  5  64       
PG31  13251.205634 -10327.270831  20783.734889    317.085485  3  8  4  97       
PG32  -4227.221262 -26518.268302    619.980325   -162.176232  7  8  3 119       
EOF
